
# Worst residual: 31.01 km
# MJD 59177.000000 (2020 Nov 24  0:00)
2019-040A = NORAD 44432 = Spektr-RG
1 44432U 19040A   20329.49919926  .00000000  00000-0  00000-0 2  9987
2 44432 036.2045 050.3304 2990609 267.9775 106.0677 00.00698520    09

# Worst residual: 29.05 km
# MJD 59178.000000 (2020 Nov 25  0:00)
2019-040A = NORAD 44432 = Spektr-RG
1 44432U 19040A   20330.49919926  .00000000  00000-0  00000-0 2  9989
2 44432 036.3259 050.5245 3114033 268.0091 106.9456 00.00700640    07

# Worst residual: 27.23 km
# MJD 59179.000000 (2020 Nov 26  0:00)
2019-040A = NORAD 44432 = Spektr-RG
1 44432U 19040A   20331.49919926  .00000000  00000-0  00000-0 2  9980
2 44432 036.4434 050.7225 3236638 267.8445 108.1206 00.00703867    00

# Worst residual: 25.59 km
# MJD 59180.000000 (2020 Nov 27  0:00)
2019-040A = NORAD 44432 = Spektr-RG
1 44432U 19040A   20332.49919926  .00000000  00000-0  00000-0 2  9981
2 44432 036.5596 050.9290 3360272 267.4858 109.5872 00.00708333    07

# Worst residual: 24.20 km
# MJD 59181.000000 (2020 Nov 28  0:00)
2019-040A = NORAD 44432 = Spektr-RG
1 44432U 19040A   20333.49919926  .00000000  00000-0  00000-0 2  9982
2 44432 036.6773 051.1487 3486931 266.9395 111.3340 00.00714150    02

# Worst residual: 23.14 km
# MJD 59182.000000 (2020 Nov 29  0:00)
2019-040A = NORAD 44432 = Spektr-RG
1 44432U 19040A   20334.49919926  .00000000  00000-0  00000-0 2  9983
2 44432 036.7987 051.3869 3618737 266.2180 113.3421 00.00721401    01

# Worst residual: 23.16 km
# MJD 59183.000000 (2020 Nov 30  0:00)
2019-040A = NORAD 44432 = Spektr-RG
1 44432U 19040A   20335.49919926  .00000000  00000-0  00000-0 2  9984
2 44432 036.9260 051.6485 3757878 265.3403 115.5831 00.00730138    08

# Worst residual: 24.71 km
# MJD 59184.000000 (2020 Dec  1  0:00)
2019-040A = NORAD 44432 = Spektr-RG
1 44432U 19040A   20336.49919926  .00000000  00000-0  00000-0 2  9985
2 44432 037.0610 051.9386 3906516 264.3326 118.0178 00.00740372    03

# Worst residual: 27.40 km
# MJD 59185.000000 (2020 Dec  2  0:00)
2019-040A = NORAD 44432 = Spektr-RG
1 44432U 19040A   20337.49919926  .00000000  00000-0  00000-0 2  9986
2 44432 037.2051 052.2620 4066653 263.2271 120.5967 00.00752078    06

# Worst residual: 30.00 km
# MJD 59186.000000 (2020 Dec  3  0:00)
2019-040A = NORAD 44432 = Spektr-RG
1 44432U 19040A   20338.49919926  .00000000  00000-0  00000-0 2  9987
2 44432 037.3595 052.6231 4239970 262.0598 123.2623 00.00765192    05

# Worst residual: 32.18 km
# MJD 59187.000000 (2020 Dec  4  0:00)
2019-040A = NORAD 44432 = Spektr-RG
1 44432U 19040A   20339.49919926  .00000000  00000-0  00000-0 2  9988
2 44432 037.5252 053.0256 4427677 260.8676 125.9533 00.00779615    09

# Worst residual: 34.14 km
# MJD 59188.000000 (2020 Dec  5  0:00)
2019-040A = NORAD 44432 = Spektr-RG
1 44432U 19040A   20340.49919926  .00000000  00000-0  00000-0 2  9980
2 44432 037.7025 053.4720 4630323 259.6853 128.6086 00.00795211    09

# Worst residual: 35.77 km
# MJD 59189.000000 (2020 Dec  6  0:00)
2019-040A = NORAD 44432 = Spektr-RG
1 44432U 19040A   20341.49919926  .00000000  00000-0  00000-0 2  9981
2 44432 037.8912 053.9633 4847585 258.5454 131.1696 00.00811801    08

# Worst residual: 37.33 km
# MJD 59190.000000 (2020 Dec  7  0:00)
2019-040A = NORAD 44432 = Spektr-RG
1 44432U 19040A   20342.49919926  .00000000  00000-0  00000-0 2  9982
2 44432 038.0902 054.4972 5078219 257.4763 133.5826 00.00829152    03

# Worst residual: 39.17 km
# MJD 59191.000000 (2020 Dec  8  0:00)
2019-040A = NORAD 44432 = Spektr-RG
1 44432U 19040A   20343.49919926  .00000000  00000-0  00000-0 2  9983
2 44432 038.2971 055.0681 5319956 256.5032 135.7988 00.00846964    03

# Worst residual: 43.53 km
# MJD 59192.000000 (2020 Dec  9  0:00)
2019-040A = NORAD 44432 = Spektr-RG
1 44432U 19040A   20344.49919926  .00000000  00000-0  00000-0 2  9984
2 44432 038.5081 055.6655 5569490 255.6478 137.7771 00.00864881    09

# Worst residual: 47.93 km
# MJD 59193.000000 (2020 Dec 10  0:00)
2019-040A = NORAD 44432 = Spektr-RG
1 44432U 19040A   20345.49919926  .00000000  00000-0  00000-0 2  9985
2 44432 038.7180 056.2735 5822682 254.9282 139.4867 00.00882492    00

# Worst residual: 52.06 km
# MJD 59194.000000 (2020 Dec 11  0:00)
2019-040A = NORAD 44432 = Spektr-RG
1 44432U 19040A   20346.49919926  .00000000  00000-0  00000-0 2  9986
2 44432 038.9196 056.8706 6074724 254.3590 140.9115 00.00899357    07

# Worst residual: 55.60 km
# MJD 59195.000000 (2020 Dec 12  0:00)
2019-040A = NORAD 44432 = Spektr-RG
1 44432U 19040A   20347.49919926  .00000000  00000-0  00000-0 2  9987
2 44432 039.1046 057.4307 6320566 253.9506 142.0548 00.00915052    02

# Worst residual: 58.23 km
# MJD 59196.000000 (2020 Dec 13  0:00)
2019-040A = NORAD 44432 = Spektr-RG
1 44432U 19040A   20348.49919926  .00000000  00000-0  00000-0 2  9988
2 44432 039.2644 057.9254 6555484 253.7077 142.9423 00.00929225    01

# Worst residual: 59.75 km
# MJD 59197.000000 (2020 Dec 14  0:00)
2019-040A = NORAD 44432 = Spektr-RG
1 44432U 19040A   20349.49919926  .00000000  00000-0  00000-0 2  9989
2 44432 039.3913 058.3280 6775689 253.6285 143.6209 00.00941649    00

# Worst residual: 60.16 km
# MJD 59198.000000 (2020 Dec 15  0:00)
2019-040A = NORAD 44432 = Spektr-RG
1 44432U 19040A   20350.49919926  .00000000  00000-0  00000-0 2  9981
2 44432 039.4803 058.6177 6978783 253.7046 144.1528 00.00952254    07

# Worst residual: 59.70 km
# MJD 59199.000000 (2020 Dec 16  0:00)
2019-040A = NORAD 44432 = Spektr-RG
1 44432U 19040A   20351.49919926  .00000000  00000-0  00000-0 2  9982
2 44432 039.5292 058.7821 7163910 253.9212 144.6063 00.00961124    08

# Worst residual: 58.44 km
# MJD 59200.000000 (2020 Dec 17  0:00)
2019-040A = NORAD 44432 = Spektr-RG
1 44432U 19040A   20352.49919926  .00000000  00000-0  00000-0 2  9983
2 44432 039.5394 058.8174 7331566 254.2599 145.0458 00.00968460    02

# Worst residual: 56.66 km
# MJD 59201.000000 (2020 Dec 18  0:00)
2019-040A = NORAD 44432 = Spektr-RG
1 44432U 19040A   20353.49919926  .00000000  00000-0  00000-0 2  9984
2 44432 039.5148 058.7278 7483206 254.7008 145.5253 00.00974530    05

# Worst residual: 54.59 km
# MJD 59202.000000 (2020 Dec 19  0:00)
2019-040A = NORAD 44432 = Spektr-RG
1 44432U 19040A   20354.49919926  .00000000  00000-0  00000-0 2  9985
2 44432 039.4608 058.5220 7620788 255.2249 146.0853 00.00979617    04

# Worst residual: 52.43 km
# MJD 59203.000000 (2020 Dec 20  0:00)
2019-040A = NORAD 44432 = Spektr-RG
1 44432U 19040A   20355.49919926  .00000000  00000-0  00000-0 2  9986
2 44432 039.3831 058.2111 7746407 255.8155 146.7534 00.00983986    03

# Worst residual: 50.29 km
# MJD 59204.000000 (2020 Dec 21  0:00)
2019-040A = NORAD 44432 = Spektr-RG
1 44432U 19040A   20356.49919926  .00000000  00000-0  00000-0 2  9987
2 44432 039.2874 057.8069 7862067 256.4585 147.5474 00.00987870    09

# Worst residual: 48.25 km
# MJD 59205.000000 (2020 Dec 22  0:00)
2019-040A = NORAD 44432 = Spektr-RG
1 44432U 19040A   20357.49919926  .00000000  00000-0  00000-0 2  9988
2 44432 039.1792 057.3209 7969580 257.1421 148.4779 00.00991462    03

# Worst residual: 46.35 km
# MJD 59206.000000 (2020 Dec 23  0:00)
2019-040A = NORAD 44432 = Spektr-RG
1 44432U 19040A   20358.49919926  .00000000  00000-0  00000-0 2  9989
2 44432 039.0629 056.7642 8070549 257.8563 149.5513 00.00994925    03

# Worst residual: 44.37 km
# MJD 59207.000000 (2020 Dec 24  0:00)
2019-040A = NORAD 44432 = Spektr-RG
1 44432U 19040A   20359.49919926  .00000000  00000-0  00000-0 2  9980
2 44432 038.9429 056.1473 8166407 258.5923 150.7714 00.00998393    02

# Worst residual: 43.11 km
# MJD 59208.000000 (2020 Dec 25  0:00)
2019-040A = NORAD 44432 = Spektr-RG
1 44432U 19040A   20360.49919926  .00000000  00000-0  00000-0 2  9982
2 44432 038.8228 055.4813 8258498 259.3415 152.1399 00.01001982    00

# Worst residual: 41.68 km
# MJD 59209.000000 (2020 Dec 26  0:00)
2019-040A = NORAD 44432 = Spektr-RG
1 44432U 19040A   20361.49919926  .00000000  00000-0  00000-0 2  9983
2 44432 038.7057 054.7767 8348065 260.0959 153.6570 00.01005797    06

# Worst residual: 40.89 km
# MJD 59210.000000 (2020 Dec 27  0:00)
2019-040A = NORAD 44432 = Spektr-RG
1 44432U 19040A   20362.49919926  .00000000  00000-0  00000-0 2  9984
2 44432 038.5943 054.0446 8436362 260.8480 155.3196 00.01009923    08

# Worst residual: 40.33 km
# MJD 59211.000000 (2020 Dec 28  0:00)
2019-040A = NORAD 44432 = Spektr-RG
1 44432U 19040A   20363.49919926  .00000000  00000-0  00000-0 2  9985
2 44432 038.4904 053.2944 8524553 261.5921 157.1201 00.01014437    09

# Worst residual: 40.26 km
# MJD 59212.000000 (2020 Dec 29  0:00)
2019-040A = NORAD 44432 = Spektr-RG
1 44432U 19040A   20364.49919926  .00000000  00000-0  00000-0 2  9986
2 44432 038.3953 052.5337 8613732 262.3252 159.0445 00.01019395    03

# Worst residual: 40.80 km
# MJD 59213.000000 (2020 Dec 30  0:00)
2019-040A = NORAD 44432 = Spektr-RG
1 44432U 19040A   20365.49919926  .00000000  00000-0  00000-0 2  9987
2 44432 038.3094 051.7657 8704796 263.0491 161.0708 00.01024827    00

# Worst residual: 41.92 km
# MJD 59214.000000 (2020 Dec 31  0:00)
2019-040A = NORAD 44432 = Spektr-RG
1 44432U 19040A   20366.49919926  .00000000  00000-0  00000-0 2  9988
2 44432 038.2323 050.9873 8798338 263.7716 163.1678 00.01030735    01
